{"type": "FeatureCollection", "features": [{"type": "Feature", "properties": {"norad_id": 50032, "name": "COSMOS 1408 DEB", "group": "cosmos-1408-debris", "lat": -36.961953978859455, "lon": 53.29668437950362, "alt_km": 439.7503127692207, "timestamp": "2025-12-12T07:43:20.783774+00:00", "meta": {"OBJECT_NAME": "COSMOS 1408 DEB", "OBJECT_ID": "1982-092RU", "EPOCH": "2025-12-11T16:20:47.923872", "MEAN_MOTION": 15.45676652, "ECCENTRICITY": 0.00151449, "INCLINATION": 82.5641, "RA_OF_ASC_NODE": 59.5936, "ARG_OF_PERICENTER": 212.6008, "MEAN_ANOMALY": 147.4307, "EPHEMERIS_TYPE": 0, "CLASSIFICATION_TYPE": "U", "NORAD_CAT_ID": 50032, "ELEMENT_SET_NO": 999, "REV_AT_EPOCH": 22587, "BSTAR": 0.00015797469, "MEAN_MOTION_DOT": 7.691e-05, "MEAN_MOTION_DDOT": 0}, "tle": {"line1": "1 50032U 82092RU  25345.68111023  .00007691  00000+0  15797-3 0  9996", "line2": "2 50032  82.5641  59.5936 0015144 212.6008 147.4307 15.45676652225876"}}, "geometry": {"type": "Point", "coordinates": [53.29668437950362, -36.961953978859455]}}, {"type": "Feature", "properties": {"norad_id": 50058, "name": "COSMOS 1408 DEB", "group": "cosmos-1408-debris", "lat": 42.60465743756703, "lon": -117.0715512241379, "alt_km": 364.03954825182063, "timestamp": "2025-12-12T07:43:20.783795+00:00", "meta": {"OBJECT_NAME": "COSMOS 1408 DEB", "OBJECT_ID": "1982-092SW", "EPOCH": "2025-12-11T06:34:19.152192", "MEAN_MOTION": 15.63964775, "ECCENTRICITY": 0.00160129, "INCLINATION": 82.6138, "RA_OF_ASC_NODE": 70.8772, "ARG_OF_PERICENTER": 102.2436, "MEAN_ANOMALY": 258.0617, "EPHEMERIS_TYPE": 0, "CLASSIFICATION_TYPE": "U", "NORAD_CAT_ID": 50058, "ELEMENT_SET_NO": 999, "REV_AT_EPOCH": 22781, "BSTAR": 0.00053909325, "MEAN_MOTION_DOT": 0.00051314, "MEAN_MOTION_DDOT": 0}, "tle": {"line1": "1 50058U 82092SW  25345.27383278  .00051314  00000+0  53909-3 0  9990", "line2": "2 50058  82.6138  70.8772 0016012 102.2436 258.0617 15.63964775227819"}}, "geometry": {"type": "Point", "coordinates": [-117.0715512241379, 42.60465743756703]}}, {"type": "Feature", "properties": {"norad_id": 50404, "name": "COSMOS 1408 DEB", "group": "cosmos-1408-debris", "lat": -35.75087614923642, "lon": -150.19955740249034, "alt_km": 595.8002889889385, "timestamp": "2025-12-12T07:43:20.783809+00:00", "meta": {"OBJECT_NAME": "COSMOS 1408 DEB", "OBJECT_ID": "1982-092ADS", "EPOCH": "2025-12-11T01:44:16.772640", "MEAN_MOTION": 15.13391943, "ECCENTRICITY": 0.01726658, "INCLINATION": 82.2029, "RA_OF_ASC_NODE": 216.7405, "ARG_OF_PERICENTER": 204.633, "MEAN_ANOMALY": 154.6586, "EPHEMERIS_TYPE": 0, "CLASSIFICATION_TYPE": "U", "NORAD_CAT_ID": 50404, "ELEMENT_SET_NO": 999, "REV_AT_EPOCH": 21168, "BSTAR": 0.003930623, "MEAN_MOTION_DOT": 0.00102745, "MEAN_MOTION_DDOT": 0}, "tle": {"line1": "1 50404U 82092ADS 25345.07241635  .00102745  00000+0  39306-2 0  9992", "line2": "2 50404  82.2029 216.7405 0172665 204.6330 154.6586 15.13391943211680"}}, "geometry": {"type": "Point", "coordinates": [-150.19955740249034, -35.75087614923642]}}, {"type": "Feature", "properties": {"norad_id": 50621, "name": "COSMOS 1408 DEB", "group": "cosmos-1408-debris", "lat": 15.44491921122752, "lon": -107.45104688478477, "alt_km": 379.07079303391583, "timestamp": "2025-12-12T07:43:20.783822+00:00", "meta": {"OBJECT_NAME": "COSMOS 1408 DEB", "OBJECT_ID": "1982-092ALR", "EPOCH": "2025-12-11T12:30:20.156832", "MEAN_MOTION": 15.56564652, "ECCENTRICITY": 0.0028861, "INCLINATION": 82.57, "RA_OF_ASC_NODE": 75.4488, "ARG_OF_PERICENTER": 157.0202, "MEAN_ANOMALY": 203.2351, "EPHEMERIS_TYPE": 0, "CLASSIFICATION_TYPE": "U", "NORAD_CAT_ID": 50621, "ELEMENT_SET_NO": 999, "REV_AT_EPOCH": 22231, "BSTAR": 0.00065091593, "MEAN_MOTION_DOT": 0.00047317, "MEAN_MOTION_DDOT": 0}, "tle": {"line1": "1 50621U 82092ALR 25345.52106663  .00047317  00000+0  65092-3 0  9999", "line2": "2 50621  82.5700  75.4488 0028861 157.0202 203.2351 15.56564652222317"}}, "geometry": {"type": "Point", "coordinates": [-107.45104688478477, 15.44491921122752]}}]}